[{"OBJECT_NAME":"STARLINK-30982","OBJECT_ID":"2023-191E","EPOCH":"2026-03-09T11:18:26.892576","MEAN_MOTION":15.2749096,"ECCENTRICITY":0.00010719,"INCLINATION":42.9984,"RA_OF_ASC_NODE":105.0294,"ARG_OF_PERICENTER":306.8199,"MEAN_ANOMALY":53.2554,"EPHEMERIS_TYPE":0,"CLASSIFICATION_TYPE":"U","NORAD_CAT_ID":58512,"ELEMENT_SET_NO":999,"REV_AT_EPOCH":12543,"BSTAR":0.00068716051,"MEAN_MOTION_DOT":0.00018644,"MEAN_MOTION_DDOT":0},{"OBJECT_NAME":"PEGASUS R\/B","OBJECT_ID":"2007-015B","EPOCH":"2026-03-09T10:58:33.801024","MEAN_MOTION":15.26741121,"ECCENTRICITY":0.00105976,"INCLINATION":97.9168,"RA_OF_ASC_NODE":31.3919,"ARG_OF_PERICENTER":317.6341,"MEAN_ANOMALY":42.4077,"EPHEMERIS_TYPE":0,"CLASSIFICATION_TYPE":"U","NORAD_CAT_ID":31305,"ELEMENT_SET_NO":999,"REV_AT_EPOCH":3383,"BSTAR":0.00044093522,"MEAN_MOTION_DOT":0.00011537,"MEAN_MOTION_DDOT":0}]
